{"object":
    {
      "orbit_id":"48",
      "fullname":"1 Ceres (A801 AA)",
      "kind":"an",
      "neo":false,
      "orbit_class": {
        "name":"Main-belt Asteroid",
        "code":"MBA"
      },
      "des":"1",
      "prefix":null,
      "shortname":"1 Ceres",
      "pha":false,
      "spkid":"20000001"
      },
      "signature": {
        "version":"1.3",
        "source":"NASA/JPL Small-Body Database (SBDB) API"
      },
      "orbit": {
        "first_obs":"1995-01-05",
        "comment":null,
        "two_body":null,
        "n_obs_used":1075,
        "source":"JPL",
        "epoch":"2460800.5",
        "elements": [
          {
            "title":"eccentricity",
            "name":"e",
            "label":"e",
            "units":null,
            "value":"0.0794",
            "sigma":"4.8e-12"
          },
          {
            "value":"2.77",
            "sigma":"1e-11",
            "title":"semi-major axis",
            "name":"a",
            "units":"au",
            "label":"a"
          },
          {"label":"q","units":"au","name":"q","title":"perihelion distance","value":"2.55","sigma":"1.9e-11"},{"value":"10.6","sigma":"4.6e-09","units":"deg","label":"i","name":"i","title":"inclination; angle with respect to x-y ecliptic plane"},{"title":"longitude of the ascending node","name":"om","label":"node","units":"deg","sigma":"6.2e-08","value":"80.3"},{"label":"peri","units":"deg","name":"w","title":"argument of perihelion","sigma":"6.6e-08","value":"73.3"},{"sigma":"6.3e-09","value":"189","name":"ma","title":"mean anomaly","label":"M","units":"deg"},{"value":"2461600.034","sigma":"2.9e-08","label":"tp","units":"TDB","name":"tp","title":"time of perihelion passage"},{"label":"period","units":"d","title":"sidereal orbital period","name":"per","value":"1680","sigma":"9.3e-09"},{"units":"deg/d","label":"n","name":"n","title":"mean motion","sigma":"1.2e-12","value":"0.214"},{"label":"Q","units":"au","title":"aphelion distance","name":"ad","value":"2.99","sigma":"1.1e-11"}],"producer":"Davide Farnocchia","rms":"0.43","not_valid_after":null,"sb_used":"SB441-N373","n_dop_obs_used":0,"data_arc":"9520","t_jup":"3.310","pe_used":"DE441","moid_jup":"2.09","model_pars":[],"not_valid_before":null,"orbit_id":"48","last_obs":"2021-01-28","cov_epoch":"2458849.5","soln_date":"2021-04-13 11:04:44","n_del_obs_used":60,"equinox":"J2000","condition_code":"0","moid":"1.58"}}
